ONEWEB-0700             
1 61606U 24188N   26076.20638636 -.00000370  00000+0 -10950-2 0  9995
2 61606  87.8809  54.4695 0002522  75.6585 284.4822 13.10375207 71255
ONEWEB-0701             
1 61607U 24188P   26076.22300174  .00000423  00000+0  11749-2 0  9995
2 61607  87.8794  54.5702 0002739  84.2997 275.8443 13.10374614 71267
ONEWEB-0702             
1 61608U 24188Q   26076.15821022 -.00000405  00000+0 -11792-2 0  9998
2 61608  87.8894  39.2676 0002871  75.0875 285.0570 13.11416315 72428
ONEWEB-0704             
1 61609U 24188R   26076.21136613 -.00000098  00000+0 -31730-3 0  9994
2 61609  87.8806  54.5497 0002818  74.9786 285.1653 13.10377114 71247
ONEWEB-0705             
1 61610U 24188S   26076.21635514  .00000071  00000+0  16659-3 0  9992
2 61610  87.8797  54.5612 0002233  53.4060 306.7273 13.10375540 63414
ONEWEB-0706             
1 61611U 24188T   26076.20140252 -.00000544  00000+0 -15938-2 0  9997
2 61611  87.8785  54.5759 0002375  73.3352 286.8036 13.10374504 71330
ONEWEB-0707             
1 61612U 24188U   26075.97897538 -.00000242  00000+0 -73017-3 0  9995
2 61612  87.8796  54.6080 0002384  75.3043 284.8349 13.10375946 71246
ONEWEB-0708             
1 61613U 24188V   26076.22631992  .00000544  00000+0  15215-2 0  9993
2 61613  87.8788  54.5859 0001726  66.2570 293.8738 13.10374152 71255
