[{"OBJECT_NAME":"ONEWEB-0700","OBJECT_ID":"2024-188N","EPOCH":"2026-03-17T04:57:11.781504","MEAN_MOTION":13.10375207,"ECCENTRICITY":0.00025229,"INCLINATION":87.8809,"RA_OF_ASC_NODE":54.4695,"ARG_OF_PERICENTER":75.6585,"MEAN_ANOMALY":284.4822,"EPHEMERIS_TYPE":0,"CLASSIFICATION_TYPE":"U","NORAD_CAT_ID":61606,"ELEMENT_SET_NO":999,"REV_AT_EPOCH":7125,"BSTAR":-0.0010950121,"MEAN_MOTION_DOT":-3.7e-6,"MEAN_MOTION_DDOT":0},{"OBJECT_NAME":"ONEWEB-0701","OBJECT_ID":"2024-188P","EPOCH":"2026-03-17T05:21:07.350336","MEAN_MOTION":13.10374614,"ECCENTRICITY":0.00027393,"INCLINATION":87.8794,"RA_OF_ASC_NODE":54.5702,"ARG_OF_PERICENTER":84.2997,"MEAN_ANOMALY":275.8443,"EPHEMERIS_TYPE":0,"CLASSIFICATION_TYPE":"U","NORAD_CAT_ID":61607,"ELEMENT_SET_NO":999,"REV_AT_EPOCH":7126,"BSTAR":0.0011748781,"MEAN_MOTION_DOT":4.23e-6,"MEAN_MOTION_DDOT":0},{"OBJECT_NAME":"ONEWEB-0702","OBJECT_ID":"2024-188Q","EPOCH":"2026-03-17T03:47:49.363008","MEAN_MOTION":13.11416315,"ECCENTRICITY":0.00028719,"INCLINATION":87.8894,"RA_OF_ASC_NODE":39.2676,"ARG_OF_PERICENTER":75.0875,"MEAN_ANOMALY":285.057,"EPHEMERIS_TYPE":0,"CLASSIFICATION_TYPE":"U","NORAD_CAT_ID":61608,"ELEMENT_SET_NO":999,"REV_AT_EPOCH":7242,"BSTAR":-0.0011792399,"MEAN_MOTION_DOT":-4.05e-6,"MEAN_MOTION_DDOT":0},{"OBJECT_NAME":"ONEWEB-0704","OBJECT_ID":"2024-188R","EPOCH":"2026-03-17T05:04:22.033632","MEAN_MOTION":13.10377114,"ECCENTRICITY":0.00028183,"INCLINATION":87.8806,"RA_OF_ASC_NODE":54.5497,"ARG_OF_PERICENTER":74.9786,"MEAN_ANOMALY":285.1653,"EPHEMERIS_TYPE":0,"CLASSIFICATION_TYPE":"U","NORAD_CAT_ID":61609,"ELEMENT_SET_NO":999,"REV_AT_EPOCH":7124,"BSTAR":-0.00031729623,"MEAN_MOTION_DOT":-9.8e-7,"MEAN_MOTION_DDOT":0},{"OBJECT_NAME":"ONEWEB-0705","OBJECT_ID":"2024-188S","EPOCH":"2026-03-17T05:11:33.084096","MEAN_MOTION":13.1037554,"ECCENTRICITY":0.00022336,"INCLINATION":87.8797,"RA_OF_ASC_NODE":54.5612,"ARG_OF_PERICENTER":53.406,"MEAN_ANOMALY":306.7273,"EPHEMERIS_TYPE":0,"CLASSIFICATION_TYPE":"U","NORAD_CAT_ID":61610,"ELEMENT_SET_NO":999,"REV_AT_EPOCH":6341,"BSTAR":0.00016658748,"MEAN_MOTION_DOT":7.1e-7,"MEAN_MOTION_DDOT":0},{"OBJECT_NAME":"ONEWEB-0706","OBJECT_ID":"2024-188T","EPOCH":"2026-03-17T04:50:01.177728","MEAN_MOTION":13.10374504,"ECCENTRICITY":0.00023754,"INCLINATION":87.8785,"RA_OF_ASC_NODE":54.5759,"ARG_OF_PERICENTER":73.3352,"MEAN_ANOMALY":286.8036,"EPHEMERIS_TYPE":0,"CLASSIFICATION_TYPE":"U","NORAD_CAT_ID":61611,"ELEMENT_SET_NO":999,"REV_AT_EPOCH":7133,"BSTAR":-0.0015938016,"MEAN_MOTION_DOT":-5.44e-6,"MEAN_MOTION_DDOT":0},{"OBJECT_NAME":"ONEWEB-0707","OBJECT_ID":"2024-188U","EPOCH":"2026-03-16T23:29:43.472832","MEAN_MOTION":13.10375946,"ECCENTRICITY":0.00023849,"INCLINATION":87.8796,"RA_OF_ASC_NODE":54.608,"ARG_OF_PERICENTER":75.3043,"MEAN_ANOMALY":284.8349,"EPHEMERIS_TYPE":0,"CLASSIFICATION_TYPE":"U","NORAD_CAT_ID":61612,"ELEMENT_SET_NO":999,"REV_AT_EPOCH":7124,"BSTAR":-0.00073016628,"MEAN_MOTION_DOT":-2.42e-6,"MEAN_MOTION_DDOT":0},{"OBJECT_NAME":"ONEWEB-0708","OBJECT_ID":"2024-188V","EPOCH":"2026-03-17T05:25:54.041088","MEAN_MOTION":13.10374152,"ECCENTRICITY":0.00017263,"INCLINATION":87.8788,"RA_OF_ASC_NODE":54.5859,"ARG_OF_PERICENTER":66.257,"MEAN_ANOMALY":293.8738,"EPHEMERIS_TYPE":0,"CLASSIFICATION_TYPE":"U","NORAD_CAT_ID":61613,"ELEMENT_SET_NO":999,"REV_AT_EPOCH":7125,"BSTAR":0.0015214963,"MEAN_MOTION_DOT":5.44e-6,"MEAN_MOTION_DDOT":0}]
